{"fetched_at":"2026-03-29T16:36:15Z","count":15609,"tles":[{"name":"STARLINK-36530","line1":"1 67514U 26012X   26087.79788397  .00025843  00000+0  94488-3 0  9992","line2":"2 67514  42.9999 206.5267 0001314 265.5853  94.4848 15.27596111 10688","category":"Starlink"}]}