{
  "norad_id": 67514,
  "name": "STARLINK-36530",
  "history": [
    {
      "epoch": "2026-03-28T19:08:57.175008Z",
      "apogee_km": 483.90261368194024,
      "perigee_km": 482.0990949855495,
      "latitude_deg": -3.102947605512184e-05,
      "longitude_deg": 93.07527149532068,
      "height_km": 482.8468750114352,
      "semi_major_axis_km": 6861.137854333745,
      "eccentricity": 0.00013143,
      "inclination_deg": 42.9999,
      "raan_deg": 206.5267,
      "arg_perigee_deg": 265.5853,
      "mean_anomaly_deg": 94.4848,
      "mean_motion_rev_day": 15.27596111
    }
  ]
}